1 08820U 76039A   03249.69680853 -.00000003  00000-0  10000-3 0  9589
2 08820 109.8114 209.4932 0044459 283.8622  75.6987  6.38664377382263
